HULIANWANG JISHU SHIYAN*
1 57288U 23095A   26198.88184522  .00000029  00000+0  25733-4 0  9997
2 57288  86.5046 354.1485 0019527 104.4615 255.8697 13.39544447147868
HULIANWANG JISHU SHIYAN*
1 57289U 23095B   26198.94801839  .00000016  00000+0  17815-5 0  9991
2 57289  86.5048 354.1350 0018120 102.3730 257.9442 13.39553036147871
HULIANWANG JISHU SHIYAN*
1 58691U 23212A   26198.92036619 -.00000108  00000+0  36412-4 0  9990
2 58691  49.9986 231.1455 0001236 229.4459 130.6311 13.41459182125375
HULIANWANG JISHU SHIYAN*
1 58692U 23212B   26198.91365250 -.00000108  00000+0  35745-4 0  9994
2 58692  49.9955 231.5270 0001385 218.7270 141.3508 13.41460318125378
HULIANWANG JISHU SHIYAN*
1 58693U 23212C   26198.91689450 -.00000101  00000+0  47950-4 0  9990
2 58693  49.9969 231.6423 0001225 208.1690 151.9121 13.41462183125388
HULIANWANG DIGUI-01     
1 62323U 24240A   26198.89754723  .00000012  00000+0 -51515-5 0  9994
2 62323  86.5023 332.8775 0001991 104.9801 255.1554 13.24411621 76702
HULIANWANG DIGUI-02     
1 62324U 24240B   26198.90500796  .00000007  00000+0 -16923-4 0  9993
2 62324  86.5051 333.0428 0001962 105.5224 254.6127 13.24411513 76717
HULIANWANG DIGUI-03     
1 62325U 24240C   26198.96552374  .00000009  00000+0 -12820-4 0  9993
2 62325  86.5005 332.7515 0002026 103.2196 256.9164 13.24410170 76719
HULIANWANG DIGUI-04     
1 62326U 24240D   26198.88243769  .00000023  00000+0  19173-4 0  9993
2 62326  86.5015 332.8231 0002156 102.8438 257.2937 13.24410467 76705
HULIANWANG DIGUI-05     
1 62327U 24240E   26198.87488382  .00000036  00000+0  49687-4 0  9992
2 62327  86.5067 333.1129 0002190 100.4986 259.6395 13.24411121 76705
HULIANWANG DIGUI-06     
1 62328U 24240F   26198.93532774  .00000049  00000+0  79563-4 0  9995
2 62328  86.5004 332.7305 0002146 107.1017 253.0352 13.24408582 76717
HULIANWANG DIGUI-07     
1 62329U 24240G   26198.92775363  .00000054  00000+0  92284-4 0  9999
2 62329  86.4974 332.5629 0002050 105.0775 255.0586 13.24411070 76719
HULIANWANG DIGUI-08     
1 62330U 24240H   26198.94287450  .00000049  00000+0  80657-4 0  9993
2 62330  86.5058 333.0363 0002256 100.4341 259.7048 13.24411395 76716
HULIANWANG DIGUI-09     
1 62331U 24240J   26198.92020371  .00000037  00000+0  52452-4 0  9998
2 62331  86.5023 332.8949 0002007 103.7158 256.4200 13.24410017 76705
HULIANWANG DIGUI-10     
1 62332U 24240K   26198.91265172  .00000024  00000+0  22715-4 0  9993
2 62332  86.5054 333.0593 0002098 106.0535 254.0830 13.24410823 76701
HULIANWANG DIGUI-11     
1 62971U 25030A   26198.90863805 -.00000099  00000+0  53470-4 0  9991
2 62971  50.0002 125.6311 0000961 281.5944  78.4820 13.29324577 69942
