{"fetched_at":"2026-07-18T06:28:10.739Z","source":"https://celestrak.org/NORAD/elements/gp.php?NAME=HULIANWANG&FORMAT=JSON","constellation":"guowang","records":[{"OBJECT_NAME":"HULIANWANG JISHU SHIYAN A","OBJECT_ID":"2023-095A","EPOCH":"2026-07-17T21:09:51.427008","CLASSIFICATION_TYPE":"U","MEAN_MOTION":13.39544447,"ECCENTRICITY":0.00195271,"INCLINATION":86.5046,"RA_OF_ASC_NODE":354.1485,"ARG_OF_PERICENTER":104.4615,"MEAN_ANOMALY":255.8697,"EPHEMERIS_TYPE":0,"NORAD_CAT_ID":57288,"ELEMENT_SET_NO":999,"REV_AT_EPOCH":14786,"BSTAR":0.000025733442,"MEAN_MOTION_DOT":2.9e-7,"MEAN_MOTION_DDOT":0},{"OBJECT_NAME":"HULIANWANG JISHU SHIYAN B","OBJECT_ID":"2023-095B","EPOCH":"2026-07-17T22:45:08.788896","CLASSIFICATION_TYPE":"U","MEAN_MOTION":13.39553036,"ECCENTRICITY":0.00181207,"INCLINATION":86.5048,"RA_OF_ASC_NODE":354.135,"ARG_OF_PERICENTER":102.373,"MEAN_ANOMALY":257.9442,"EPHEMERIS_TYPE":0,"NORAD_CAT_ID":57289,"ELEMENT_SET_NO":999,"REV_AT_EPOCH":14787,"BSTAR":0.000001781509,"MEAN_MOTION_DOT":1.6e-7,"MEAN_MOTION_DDOT":0},{"OBJECT_NAME":"HULIANWANG JISHU SHIYAN 4A","OBJECT_ID":"2023-212A","EPOCH":"2026-07-17T22:05:19.638816","CLASSIFICATION_TYPE":"U","MEAN_MOTION":13.41459182,"ECCENTRICITY":0.00012362,"INCLINATION":49.9986,"RA_OF_ASC_NODE":231.1455,"ARG_OF_PERICENTER":229.4459,"MEAN_ANOMALY":130.6311,"EPHEMERIS_TYPE":0,"NORAD_CAT_ID":58691,"ELEMENT_SET_NO":999,"REV_AT_EPOCH":12537,"BSTAR":0.000036411888,"MEAN_MOTION_DOT":-0.00000108,"MEAN_MOTION_DDOT":0},{"OBJECT_NAME":"HULIANWANG JISHU SHIYAN 4B","OBJECT_ID":"2023-212B","EPOCH":"2026-07-17T21:55:39.576000","CLASSIFICATION_TYPE":"U","MEAN_MOTION":13.41460318,"ECCENTRICITY":0.00013856,"INCLINATION":49.9955,"RA_OF_ASC_NODE":231.527,"ARG_OF_PERICENTER":218.727,"MEAN_ANOMALY":141.3508,"EPHEMERIS_TYPE":0,"NORAD_CAT_ID":58692,"ELEMENT_SET_NO":999,"REV_AT_EPOCH":12537,"BSTAR":0.000035744524,"MEAN_MOTION_DOT":-0.00000108,"MEAN_MOTION_DDOT":0},{"OBJECT_NAME":"HULIANWANG JISHU SHIYAN 4C","OBJECT_ID":"2023-212C","EPOCH":"2026-07-17T22:00:19.684800","CLASSIFICATION_TYPE":"U","MEAN_MOTION":13.41462183,"ECCENTRICITY":0.00012254,"INCLINATION":49.9969,"RA_OF_ASC_NODE":231.6423,"ARG_OF_PERICENTER":208.169,"MEAN_ANOMALY":151.9121,"EPHEMERIS_TYPE":0,"NORAD_CAT_ID":58693,"ELEMENT_SET_NO":999,"REV_AT_EPOCH":12538,"BSTAR":0.000047950006,"MEAN_MOTION_DOT":-0.00000101,"MEAN_MOTION_DDOT":0},{"OBJECT_NAME":"HULIANWANG DIGUI-01","OBJECT_ID":"2024-240A","EPOCH":"2026-07-17T21:32:28.080672","CLASSIFICATION_TYPE":"U","MEAN_MOTION":13.24411621,"ECCENTRICITY":0.00019919,"INCLINATION":86.5023,"RA_OF_ASC_NODE":332.8775,"ARG_OF_PERICENTER":104.9801,"MEAN_ANOMALY":255.1554,"EPHEMERIS_TYPE":0,"NORAD_CAT_ID":62323,"ELEMENT_SET_NO":999,"REV_AT_EPOCH":7670,"BSTAR":-0.000005151549,"MEAN_MOTION_DOT":1.2e-7,"MEAN_MOTION_DDOT":0},{"OBJECT_NAME":"HULIANWANG DIGUI-02","OBJECT_ID":"2024-240B","EPOCH":"2026-07-17T21:43:12.687744","CLASSIFICATION_TYPE":"U","MEAN_MOTION":13.24411513,"ECCENTRICITY":0.00019622,"INCLINATION":86.5051,"RA_OF_ASC_NODE":333.0428,"ARG_OF_PERICENTER":105.5224,"MEAN_ANOMALY":254.6127,"EPHEMERIS_TYPE":0,"NORAD_CAT_ID":62324,"ELEMENT_SET_NO":999,"REV_AT_EPOCH":7671,"BSTAR":-0.000016922696,"MEAN_MOTION_DOT":7e-8,"MEAN_MOTION_DDOT":0},{"OBJECT_NAME":"HULIANWANG DIGUI-03","OBJECT_ID":"2024-240C","EPOCH":"2026-07-17T23:10:21.251136","CLASSIFICATION_TYPE":"U","MEAN_MOTION":13.2441017,"ECCENTRICITY":0.00020262,"INCLINATION":86.5005,"RA_OF_ASC_NODE":332.7515,"ARG_OF_PERICENTER":103.2196,"MEAN_ANOMALY":256.9164,"EPHEMERIS_TYPE":0,"NORAD_CAT_ID":62325,"ELEMENT_SET_NO":999,"REV_AT_EPOCH":7671,"BSTAR":-0.000012819614,"MEAN_MOTION_DOT":9e-8,"MEAN_MOTION_DDOT":0},{"OBJECT_NAME":"HULIANWANG DIGUI-04","OBJECT_ID":"2024-240D","EPOCH":"2026-07-17T21:10:42.616416","CLASSIFICATION_TYPE":"U","MEAN_MOTION":13.24410467,"ECCENTRICITY":0.00021564,"INCLINATION":86.5015,"RA_OF_ASC_NODE":332.8231,"ARG_OF_PERICENTER":102.8438,"MEAN_ANOMALY":257.2937,"EPHEMERIS_TYPE":0,"NORAD_CAT_ID":62326,"ELEMENT_SET_NO":999,"REV_AT_EPOCH":7670,"BSTAR":0.000019173231,"MEAN_MOTION_DOT":2.3e-7,"MEAN_MOTION_DDOT":0},{"OBJECT_NAME":"HULIANWANG DIGUI-05","OBJECT_ID":"2024-240E","EPOCH":"2026-07-17T20:59:49.962048","CLASSIFICATION_TYPE":"U","MEAN_MOTION":13.24411121,"ECCENTRICITY":0.00021909,"INCLINATION":86.5067,"RA_OF_ASC_NODE":333.1129,"ARG_OF_PERICENTER":100.4986,"MEAN_ANOMALY":259.6395,"EPHEMERIS_TYPE":0,"NORAD_CAT_ID":62327,"ELEMENT_SET_NO":999,"REV_AT_EPOCH":7670,"BSTAR":0.00004968679,"MEAN_MOTION_DOT":3.6e-7,"MEAN_MOTION_DDOT":0},{"OBJECT_NAME":"HULIANWANG DIGUI-06","OBJECT_ID":"2024-240F","EPOCH":"2026-07-17T22:26:52.316736","CLASSIFICATION_TYPE":"U","MEAN_MOTION":13.24408582,"ECCENTRICITY":0.00021464,"INCLINATION":86.5004,"RA_OF_ASC_NODE":332.7305,"ARG_OF_PERICENTER":107.1017,"MEAN_ANOMALY":253.0352,"EPHEMERIS_TYPE":0,"NORAD_CAT_ID":62328,"ELEMENT_SET_NO":999,"REV_AT_EPOCH":7671,"BSTAR":0.000079563345,"MEAN_MOTION_DOT":4.9e-7,"MEAN_MOTION_DDOT":0},{"OBJECT_NAME":"HULIANWANG DIGUI-07","OBJECT_ID":"2024-240G","EPOCH":"2026-07-17T22:15:57.913632","CLASSIFICATION_TYPE":"U","MEAN_MOTION":13.2441107,"ECCENTRICITY":0.00020501,"INCLINATION":86.4974,"RA_OF_ASC_NODE":332.5629,"ARG_OF_PERICENTER":105.0775,"MEAN_ANOMALY":255.0586,"EPHEMERIS_TYPE":0,"NORAD_CAT_ID":62329,"ELEMENT_SET_NO":999,"REV_AT_EPOCH":7671,"BSTAR":0.000092284312,"MEAN_MOTION_DOT":5.4e-7,"MEAN_MOTION_DDOT":0},{"OBJECT_NAME":"HULIANWANG DIGUI-08","OBJECT_ID":"2024-240H","EPOCH":"2026-07-17T22:37:44.356800","CLASSIFICATION_TYPE":"U","MEAN_MOTION":13.24411395,"ECCENTRICITY":0.00022568,"INCLINATION":86.5058,"RA_OF_ASC_NODE":333.0363,"ARG_OF_PERICENTER":100.4341,"MEAN_ANOMALY":259.7048,"EPHEMERIS_TYPE":0,"NORAD_CAT_ID":62330,"ELEMENT_SET_NO":999,"REV_AT_EPOCH":7671,"BSTAR":0.000080657311,"MEAN_MOTION_DOT":4.9e-7,"MEAN_MOTION_DDOT":0},{"OBJECT_NAME":"HULIANWANG DIGUI-09","OBJECT_ID":"2024-240J","EPOCH":"2026-07-17T22:05:05.600544","CLASSIFICATION_TYPE":"U","MEAN_MOTION":13.24410017,"ECCENTRICITY":0.00020079,"INCLINATION":86.5023,"RA_OF_ASC_NODE":332.8949,"ARG_OF_PERICENTER":103.7158,"MEAN_ANOMALY":256.42,"EPHEMERIS_TYPE":0,"NORAD_CAT_ID":62331,"ELEMENT_SET_NO":999,"REV_AT_EPOCH":7670,"BSTAR":0.000052452425,"MEAN_MOTION_DOT":3.7e-7,"MEAN_MOTION_DDOT":0},{"OBJECT_NAME":"HULIANWANG DIGUI-10","OBJECT_ID":"2024-240K","EPOCH":"2026-07-17T21:54:13.108608","CLASSIFICATION_TYPE":"U","MEAN_MOTION":13.24410823,"ECCENTRICITY":0.00020983,"INCLINATION":86.5054,"RA_OF_ASC_NODE":333.0593,"ARG_OF_PERICENTER":106.0535,"MEAN_ANOMALY":254.083,"EPHEMERIS_TYPE":0,"NORAD_CAT_ID":62332,"ELEMENT_SET_NO":999,"REV_AT_EPOCH":7670,"BSTAR":0.00002271523,"MEAN_MOTION_DOT":2.4e-7,"MEAN_MOTION_DDOT":0},{"OBJECT_NAME":"HULIANWANG DIGUI-11","OBJECT_ID":"2025-030A","EPOCH":"2026-07-17T21:48:26.327520","CLASSIFICATION_TYPE":"U","MEAN_MOTION":13.29324577,"ECCENTRICITY":0.00009618,"INCLINATION":50.0002,"RA_OF_ASC_NODE":125.6311,"ARG_OF_PERICENTER":281.5944,"MEAN_ANOMALY":78.482,"EPHEMERIS_TYPE":0,"NORAD_CAT_ID":62971,"ELEMENT_SET_NO":999,"REV_AT_EPOCH":6994,"BSTAR":0.000053469593,"MEAN_MOTION_DOT":-9.9e-7,"MEAN_MOTION_DDOT":0}]}
